{"type": "FeatureCollection", "features": [ {"type": "Feature", "properties": {"norad_id": 33153, "name": "INTELSAT 25 (IS-25)", "group": "intelsat", "lat": 1.671232951249646, "lon": 130.14682114704195, "alt_km": 35801.15262639614, "timestamp": "2025-12-18T04:58:34.248192+00:00", "meta": {"OBJECT_NAME": "INTELSAT 25 (IS-25)", "OBJECT_ID": "2008-034A", "EPOCH": "2025-12-17T18:18:46.394208", "MEAN_MOTION": 1.00270858, "ECCENTRICITY": 0.00048121, "INCLINATION": 2.24, "RA_OF_ASC_NODE": 82.5968, "ARG_OF_PERICENTER": 184.9432, "MEAN_ANOMALY": 62.289, "EPHEMERIS_TYPE": 0, "CLASSIFICATION_TYPE": "U", "NORAD_CAT_ID": 33153, "ELEMENT_SET_NO": 999, "REV_AT_EPOCH": 6387, "BSTAR": 0, "MEAN_MOTION_DOT": -2.01e-06, "MEAN_MOTION_DDOT": 0}, "tle": {"line1": "1 33153U 08034A   25351.76303697 -.00000201  00000+0  00000+0 0  9999", "line2": "2 33153   2.2400  82.5968 0004812 184.9432  62.2890  1.00270858 63871"}}, "geometry": {"type": "Point", "coordinates": [130.14682114704195, 1.671232951249646]}}, {"type": "Feature", "properties": {"norad_id": 33376, "name": "GALAXY 19 (G-19)", "group": "intelsat", "lat": 0.03024550984977802, "lon": 64.71437537011938, "alt_km": 35795.95834977646, "timestamp": "2025-12-18T04:58:34.248205+00:00", "meta": {"OBJECT_NAME": "GALAXY 19 (G-19)", "OBJECT_ID": "2008-045A", "EPOCH": "2025-12-17T16:17:05.545824", "MEAN_MOTION": 1.00271089, "ECCENTRICITY": 0.00025028, "INCLINATION": 0.0217, "RA_OF_ASC_NODE": 283.1197, "ARG_OF_PERICENTER": 345.9066, "MEAN_ANOMALY": 324.7986, "EPHEMERIS_TYPE": 0, "CLASSIFICATION_TYPE": "U", "NORAD_CAT_ID": 33376, "ELEMENT_SET_NO": 999, "REV_AT_EPOCH": 6308, "BSTAR": 0, "MEAN_MOTION_DOT": -1.14e-06, "MEAN_MOTION_DDOT": 0}, "tle": {"line1": "1 33376U 08045A   25351.67853641 -.00000114  00000+0  00000+0 0  9990", "line2": "2 33376   0.0217 283.1197 0002502 345.9066 324.7986  1.00271089 63081"}}, "geometry": {"type": "Point", "coordinates": [64.71437537011938, 0.03024550984977802]}}, {"type": "Feature", "properties": {"norad_id": 35493, "name": "FM-5", "group": "intelsat", "lat": 0.0297129183836134, "lon": 75.54902263125778, "alt_km": 35785.40735723349, "timestamp": "2025-12-18T04:58:34.248216+00:00", "meta": {"OBJECT_NAME": "FM-5", "OBJECT_ID": "2009-034A", "EPOCH": "2025-12-17T14:37:45.057792", "MEAN_MOTION": 1.00270553, "ECCENTRICITY": 8.174e-05, "INCLINATION": 0.0189, "RA_OF_ASC_NODE": 293.208, "ARG_OF_PERICENTER": 214.6235, "MEAN_ANOMALY": 71.9468, "EPHEMERIS_TYPE": 0, "CLASSIFICATION_TYPE": "U", "NORAD_CAT_ID": 35493, "ELEMENT_SET_NO": 999, "REV_AT_EPOCH": 4482, "BSTAR": 0, "MEAN_MOTION_DOT": -1.75e-06, "MEAN_MOTION_DDOT": 0}, "tle": {"line1": "1 35493U 09034A   25351.60954928 -.00000175  00000+0  00000+0 0  9991", "line2": "2 35493   0.0189 293.2080 0000817 214.6235  71.9468  1.00270553 44823"}}, "geometry": {"type": "Point", "coordinates": [75.54902263125778, 0.0297129183836134]}}, {"type": "Feature", "properties": {"norad_id": 36097, "name": "INTELSAT 14 (IS-14)", "group": "intelsat", "lat": 0.0209968961294911, "lon": 116.70667343916205, "alt_km": 35795.75885073309, "timestamp": "2025-12-18T04:58:34.248228+00:00", "meta": {"OBJECT_NAME": "INTELSAT 14 (IS-14)", "OBJECT_ID": "2009-064A", "EPOCH": "2025-12-17T18:14:54.264192", "MEAN_MOTION": 1.00272026, "ECCENTRICITY": 0.00024403, "INCLINATION": 0.0118, "RA_OF_ASC_NODE": 322.9055, "ARG_OF_PERICENTER": 313.7098, "MEAN_ANOMALY": 38.7555, "EPHEMERIS_TYPE": 0, "CLASSIFICATION_TYPE": "U", "NORAD_CAT_ID": 36097, "ELEMENT_SET_NO": 999, "REV_AT_EPOCH": 5878, "BSTAR": 0, "MEAN_MOTION_DOT": -2.48e-06, "MEAN_MOTION_DDOT": 0}, "tle": {"line1": "1 36097U 09064A   25351.76035028 -.00000248  00000+0  00000+0 0  9994", "line2": "2 36097   0.0118 322.9055 0002440 313.7098  38.7555  1.00272026 58785"}}, "geometry": {"type": "Point", "coordinates": [116.70667343916205, 0.0209968961294911]}}, {"type": "Feature", "properties": {"norad_id": 36106, "name": "INTELSAT 15 (IS-15)", "group": "intelsat", "lat": -0.043930755975614154, "lon": -113.15409060166496, "alt_km": 35778.35846260003, "timestamp": "2025-12-18T04:58:34.248239+00:00", "meta": {"OBJECT_NAME": "INTELSAT 15 (IS-15)", "OBJECT_ID": "2009-067A", "EPOCH": "2025-12-17T20:34:46.380864", "MEAN_MOTION": 1.00271572, "ECCENTRICITY": 0.00021607, "INCLINATION": 0.0176, "RA_OF_ASC_NODE": 344.0278, "ARG_OF_PERICENTER": 294.3394, "MEAN_ANOMALY": 202.2096, "EPHEMERIS_TYPE": 0, "CLASSIFICATION_TYPE": "U", "NORAD_CAT_ID": 36106, "ELEMENT_SET_NO": 999, "REV_AT_EPOCH": 3941, "BSTAR": 0, "MEAN_MOTION_DOT": -1.6e-06, "MEAN_MOTION_DDOT": 0}, "tle": {"line1": "1 36106U 09067A   25351.85748126 -.00000160  00000+0  00000+0 0  9991", "line2": "2 36106   0.0176 344.0278 0002160 294.3394 202.2096  1.00271572 39416"}}, "geometry": {"type": "Point", "coordinates": [-113.15409060166496, -0.043930755975614154]}}, {"type": "Feature", "properties": {"norad_id": 36131, "name": "DIRECTV 12", "group": "intelsat", "lat": 0.012234399470977193, "lon": 58.991849097712965, "alt_km": 35785.54687365906, "timestamp": "2025-12-18T04:58:34.248251+00:00", "meta": {"OBJECT_NAME": "DIRECTV 12", "OBJECT_ID": "2009-075A", "EPOCH": "2025-12-17T21:23:49.183872", "MEAN_MOTION": 1.00270615, "ECCENTRICITY": 3.654e-05, "INCLINATION": 0.0486, "RA_OF_ASC_NODE": 153.7666, "ARG_OF_PERICENTER": 209.5848, "MEAN_ANOMALY": 301.6511, "EPHEMERIS_TYPE": 0, "CLASSIFICATION_TYPE": "U", "NORAD_CAT_ID": 36131, "ELEMENT_SET_NO": 999, "REV_AT_EPOCH": 4473, "BSTAR": 0, "MEAN_MOTION_DOT": -7.8e-07, "MEAN_MOTION_DDOT": 0}, "tle": {"line1": "1 36131U 09075A   25351.89154148 -.00000078  00000+0  00000+0 0  9995", "line2": "2 36131   0.0486 153.7666 0000365 209.5848 301.6511  1.00270615 44735"}}, "geometry": {"type": "Point", "coordinates": [58.991849097712965, 0.012234399470977193]}}, {"type": "Feature", "properties": {"norad_id": 36397, "name": "INTELSAT 16 (IS-16)", "group": "intelsat", "lat": 0.03603612780547486, "lon": 85.51034721040544, "alt_km": 35793.69872324849, "timestamp": "2025-12-18T04:58:34.248262+00:00", "meta": {"OBJECT_NAME": "INTELSAT 16 (IS-16)", "OBJECT_ID": "2010-006A", "EPOCH": "2025-12-17T12:57:47.130048", "MEAN_MOTION": 1.00272497, "ECCENTRICITY": 0.00018317, "INCLINATION": 0.0098, "RA_OF_ASC_NODE": 356.6253, "ARG_OF_PERICENTER": 269.7654, "MEAN_ANOMALY": 298.2757, "EPHEMERIS_TYPE": 0, "CLASSIFICATION_TYPE": "U", "NORAD_CAT_ID": 36397, "ELEMENT_SET_NO": 999, "REV_AT_EPOCH": 5783, "BSTAR": 0, "MEAN_MOTION_DOT": -2.2e-06, "MEAN_MOTION_DDOT": 0}, "tle": {"line1": "1 36397U 10006A   25351.54012882 -.00000220  00000+0  00000+0 0  9994", "line2": "2 36397   0.0098 356.6253 0001831 269.7654 298.2757  1.00272497 57834"}}, "geometry": {"type": "Point", "coordinates": [85.51034721040544, 0.03603612780547486]}}, {"type": "Feature", "properties": {"norad_id": 37185, "name": "XM-5", "group": "intelsat", "lat": 0.06324669377736417, "lon": 46.48719290261547, "alt_km": 35787.15434051839, "timestamp": "2025-12-18T04:58:34.248274+00:00", "meta": {"OBJECT_NAME": "XM-5", "OBJECT_ID": "2010-053A", "EPOCH": "2025-12-17T21:20:19.518720", "MEAN_MOTION": 1.00270638, "ECCENTRICITY": 0.00018313, "INCLINATION": 0.0628, "RA_OF_ASC_NODE": 272.5834, "ARG_OF_PERICENTER": 229.8801, "MEAN_ANOMALY": 149.1827, "EPHEMERIS_TYPE": 0, "CLASSIFICATION_TYPE": "U", "NORAD_CAT_ID": 37185, "ELEMENT_SET_NO": 999, "REV_AT_EPOCH": 5566, "BSTAR": 0, "MEAN_MOTION_DOT": 2e-08, "MEAN_MOTION_DDOT": 0}, "tle": {"line1": "1 37185U 10053A   25351.88911480  .00000002  00000+0  00000+0 0  9998", "line2": "2 37185   0.0628 272.5834 0001831 229.8801 149.1827  1.00270638 55667"}}, "geometry": {"type": "Point", "coordinates": [46.48719290261547, 0.06324669377736417]}}, {"type": "Feature", "properties": {"norad_id": 37238, "name": "INTELSAT 17 (IS-17)", "group": "intelsat", "lat": -0.030657577988476854, "lon": -132.32148231578364, "alt_km": 35778.595081816806, "timestamp": "2025-12-18T04:58:34.248285+00:00", "meta": {"OBJECT_NAME": "INTELSAT 17 (IS-17)", "OBJECT_ID": "2010-065B", "EPOCH": "2025-12-17T19:51:26.076960", "MEAN_MOTION": 1.00270798, "ECCENTRICITY": 0.00026057, "INCLINATION": 0.0069, "RA_OF_ASC_NODE": 328.5312, "ARG_OF_PERICENTER": 304.6436, "MEAN_ANOMALY": 177.3797, "EPHEMERIS_TYPE": 0, "CLASSIFICATION_TYPE": "U", "NORAD_CAT_ID": 37238, "ELEMENT_SET_NO": 999, "REV_AT_EPOCH": 5143, "BSTAR": 0, "MEAN_MOTION_DOT": 2.4e-07, "MEAN_MOTION_DDOT": 0}, "tle": {"line1": "1 37238U 10065B   25351.82738515  .00000024  00000+0  00000+0 0  9994", "line2": "2 37238   0.0069 328.5312 0002605 304.6436 177.3797  1.00270798 51431"}}, "geometry": {"type": "Point", "coordinates": [-132.32148231578364, -0.030657577988476854]}}, {"type": "Feature", "properties": {"norad_id": 37392, "name": "INTELSAT 28 (IS-28)", "group": "intelsat", "lat": 0.9625426285496035, "lon": 129.98810493537687, "alt_km": 35798.360000247165, "timestamp": "2025-12-18T04:58:34.248297+00:00", "meta": {"OBJECT_NAME": "INTELSAT 28 (IS-28)", "OBJECT_ID": "2011-016A", "EPOCH": "2025-12-17T18:18:38.905920", "MEAN_MOTION": 1.00270715, "ECCENTRICITY": 0.00036899, "INCLINATION": 1.337, "RA_OF_ASC_NODE": 85.0015, "ARG_OF_PERICENTER": 185.6021, "MEAN_ANOMALY": 59.0123, "EPHEMERIS_TYPE": 0, "CLASSIFICATION_TYPE": "U", "NORAD_CAT_ID": 37392, "ELEMENT_SET_NO": 999, "REV_AT_EPOCH": 5146, "BSTAR": 0, "MEAN_MOTION_DOT": -2.01e-06, "MEAN_MOTION_DDOT": 0}, "tle": {"line1": "1 37392U 11016A   25351.76295030 -.00000201  00000+0  00000+0 0  9993", "line2": "2 37392   1.3370  85.0015 0003689 185.6021  59.0123  1.00270715 51467"}}, "geometry": {"type": "Point", "coordinates": [129.98810493537687, 0.9625426285496035]}}]}